0 TITAN 3C TRANSTAGE DEB
1 28834U 65108CL  13281.88537983 -.00000046  00000-0  00000+0 0  1511
2 28834 027.0036 053.2184 6660653 208.0273 026.1447 02.59011658 86355
0 TITAN 3C TRANSTAGE DEB
1 28834U 65108CL  13295.44724614 -.00000108  00000-0  00000+0 0  1527
2 28834 026.9943 048.4870 6657141 215.9452 071.7899 02.59011730 86710
0 TITAN 3C TRANSTAGE DEB
1 28834U 65108CL  13295.78270933 -.00000103  00000-0  00000+0 0  1530
2 28834 027.0325 048.3365 6666559 216.2489 024.5072 02.59012912 86713
